{"type": "FeatureCollection", "features": [ {"type": "Feature", "properties": {"norad_id": 66508, "name": "STARLINK-35608", "group": "last-30-days", "lat": -4.409181534709624, "lon": 172.09864556723804, "alt_km": 360.6549488403489, "timestamp": "2025-12-03T22:42:31.476041+00:00", "meta": {"OBJECT_NAME": "STARLINK-35608", "OBJECT_ID": "2025-263Z", "EPOCH": "2025-12-03T12:00:02.998944", "MEAN_MOTION": 15.71355916, "ECCENTRICITY": 0.0001763, "INCLINATION": 42.9989, "RA_OF_ASC_NODE": 179.5342, "ARG_OF_PERICENTER": 264.0484, "MEAN_ANOMALY": 84.0985, "EPHEMERIS_TYPE": 0, "CLASSIFICATION_TYPE": "U", "NORAD_CAT_ID": 66508, "ELEMENT_SET_NO": 999, "REV_AT_EPOCH": 415, "BSTAR": -0.016677, "MEAN_MOTION_DOT": -0.01937663, "MEAN_MOTION_DDOT": 0}, "tle": {"line1": "1 66508U 25263Z   25337.50003471 -.01937663  00000+0 -16677-1 0  9997", "line2": "2 66508  42.9989 179.5342 0001763 264.0484  84.0985 15.71355916  4151"}}, "geometry": {"type": "Point", "coordinates": [172.09864556723804, -4.409181534709624]}}, {"type": "Feature", "properties": {"norad_id": 66509, "name": "STARLINK-35598", "group": "last-30-days", "lat": 0.8129959558746505, "lon": 177.6977321015342, "alt_km": 360.2543024243241, "timestamp": "2025-12-03T22:42:31.476050+00:00", "meta": {"OBJECT_NAME": "STARLINK-35598", "OBJECT_ID": "2025-263AA", "EPOCH": "2025-12-03T12:00:02.998944", "MEAN_MOTION": 15.71357849, "ECCENTRICITY": 0.0001833, "INCLINATION": 42.9994, "RA_OF_ASC_NODE": 179.514, "ARG_OF_PERICENTER": 262.404, "MEAN_ANOMALY": 93.4119, "EPHEMERIS_TYPE": 0, "CLASSIFICATION_TYPE": "U", "NORAD_CAT_ID": 66509, "ELEMENT_SET_NO": 999, "REV_AT_EPOCH": 415, "BSTAR": -0.016735, "MEAN_MOTION_DOT": -0.0194378, "MEAN_MOTION_DDOT": 0}, "tle": {"line1": "1 66509U 25263AA  25337.50003471 -.01943780  00000+0 -16735-1 0  9990", "line2": "2 66509  42.9994 179.5140 0001833 262.4040  93.4119 15.71357849  4152"}}, "geometry": {"type": "Point", "coordinates": [177.6977321015342, 0.8129959558746505]}}, {"type": "Feature", "properties": {"norad_id": 66510, "name": "STARLINK-35600", "group": "last-30-days", "lat": -3.105895329333037, "lon": 173.50159083255286, "alt_km": 360.59846333264886, "timestamp": "2025-12-03T22:42:31.476059+00:00", "meta": {"OBJECT_NAME": "STARLINK-35600", "OBJECT_ID": "2025-263AB", "EPOCH": "2025-12-03T12:00:02.998944", "MEAN_MOTION": 15.71353643, "ECCENTRICITY": 0.0001784, "INCLINATION": 42.9991, "RA_OF_ASC_NODE": 179.5288, "ARG_OF_PERICENTER": 262.2521, "MEAN_ANOMALY": 87.8135, "EPHEMERIS_TYPE": 0, "CLASSIFICATION_TYPE": "U", "NORAD_CAT_ID": 66510, "ELEMENT_SET_NO": 999, "REV_AT_EPOCH": 415, "BSTAR": -0.016663, "MEAN_MOTION_DOT": -0.01936089, "MEAN_MOTION_DDOT": 0}, "tle": {"line1": "1 66510U 25263AB  25337.50003471 -.01936089  00000+0 -16663-1 0  9996", "line2": "2 66510  42.9991 179.5288 0001784 262.2521  87.8135 15.71353643  4154"}}, "geometry": {"type": "Point", "coordinates": [173.50159083255286, -3.105895329333037]}}, {"type": "Feature", "properties": {"norad_id": 66511, "name": "STARLINK-35444", "group": "last-30-days", "lat": -0.49374871964341277, "lon": 176.3000567483559, "alt_km": 360.40541119630234, "timestamp": "2025-12-03T22:42:31.476069+00:00", "meta": {"OBJECT_NAME": "STARLINK-35444", "OBJECT_ID": "2025-263AC", "EPOCH": "2025-12-03T12:00:02.998944", "MEAN_MOTION": 15.71354657, "ECCENTRICITY": 0.0001748, "INCLINATION": 42.9994, "RA_OF_ASC_NODE": 179.5188, "ARG_OF_PERICENTER": 260.9008, "MEAN_ANOMALY": 92.9993, "EPHEMERIS_TYPE": 0, "CLASSIFICATION_TYPE": "U", "NORAD_CAT_ID": 66511, "ELEMENT_SET_NO": 999, "REV_AT_EPOCH": 415, "BSTAR": -0.016678, "MEAN_MOTION_DOT": -0.01937617, "MEAN_MOTION_DDOT": 0}, "tle": {"line1": "1 66511U 25263AC  25337.50003471 -.01937617  00000+0 -16678-1 0  9991", "line2": "2 66511  42.9994 179.5188 0001748 260.9008  92.9993 15.71354657  4157"}}, "geometry": {"type": "Point", "coordinates": [176.3000567483559, -0.49374871964341277]}}, {"type": "Feature", "properties": {"norad_id": 66512, "name": "STARLINK-35366", "group": "last-30-days", "lat": 2.119161961644747, "lon": 179.09653120478896, "alt_km": 360.1715073042551, "timestamp": "2025-12-03T22:42:31.476078+00:00", "meta": {"OBJECT_NAME": "STARLINK-35366", "OBJECT_ID": "2025-263AD", "EPOCH": "2025-12-03T12:00:02.998944", "MEAN_MOTION": 15.71356399, "ECCENTRICITY": 0.0001773, "INCLINATION": 42.999, "RA_OF_ASC_NODE": 179.5095, "ARG_OF_PERICENTER": 260.7111, "MEAN_ANOMALY": 97.0226, "EPHEMERIS_TYPE": 0, "CLASSIFICATION_TYPE": "U", "NORAD_CAT_ID": 66512, "ELEMENT_SET_NO": 999, "REV_AT_EPOCH": 415, "BSTAR": -0.016715, "MEAN_MOTION_DOT": -0.01941594, "MEAN_MOTION_DDOT": 0}, "tle": {"line1": "1 66512U 25263AD  25337.50003471 -.01941594  00000+0 -16715-1 0  9993", "line2": "2 66512  42.9990 179.5095 0001773 260.7111  97.0226 15.71356399  4152"}}, "geometry": {"type": "Point", "coordinates": [179.09653120478896, 2.119161961644747]}}, {"type": "Feature", "properties": {"norad_id": 66513, "name": "STARLINK-35692", "group": "last-30-days", "lat": -1.7998593400196632, "lon": 174.90201803282483, "alt_km": 360.50359742930596, "timestamp": "2025-12-03T22:42:31.476087+00:00", "meta": {"OBJECT_NAME": "STARLINK-35692", "OBJECT_ID": "2025-263AE", "EPOCH": "2025-12-03T12:00:02.998944", "MEAN_MOTION": 15.7135406, "ECCENTRICITY": 0.0001871, "INCLINATION": 42.9987, "RA_OF_ASC_NODE": 179.5235, "ARG_OF_PERICENTER": 261.7649, "MEAN_ANOMALY": 90.2179, "EPHEMERIS_TYPE": 0, "CLASSIFICATION_TYPE": "U", "NORAD_CAT_ID": 66513, "ELEMENT_SET_NO": 999, "REV_AT_EPOCH": 415, "BSTAR": -0.016675, "MEAN_MOTION_DOT": -0.01937441, "MEAN_MOTION_DDOT": 0}, "tle": {"line1": "1 66513U 25263AE  25337.50003471 -.01937441  00000+0 -16675-1 0  9995", "line2": "2 66513  42.9987 179.5235 0001871 261.7649  90.2179 15.71354060  4156"}}, "geometry": {"type": "Point", "coordinates": [174.90201803282483, -1.7998593400196632]}}, {"type": "Feature", "properties": {"norad_id": 66514, "name": "SENTINEL-6B", "group": "last-30-days", "lat": 26.015436204323134, "lon": -11.751826743410366, "alt_km": 1320.0632660429928, "timestamp": "2025-12-03T22:42:31.476100+00:00", "meta": {"OBJECT_NAME": "SENTINEL-6B", "OBJECT_ID": "2025-264A", "EPOCH": "2025-12-03T12:35:26.831040", "MEAN_MOTION": 12.85877502, "ECCENTRICITY": 0.0011536, "INCLINATION": 66.0389, "RA_OF_ASC_NODE": 181.6659, "ARG_OF_PERICENTER": 268.6185, "MEAN_ANOMALY": 91.3511, "EPHEMERIS_TYPE": 0, "CLASSIFICATION_TYPE": "U", "NORAD_CAT_ID": 66514, "ELEMENT_SET_NO": 999, "REV_AT_EPOCH": 210, "BSTAR": 0.00029302, "MEAN_MOTION_DOT": 1e-07, "MEAN_MOTION_DDOT": 0}, "tle": {"line1": "1 66514U 25264A   25337.52461610  .00000010  00000+0  29302-3 0  9995", "line2": "2 66514  66.0389 181.6659 0011536 268.6185  91.3511 12.85877502  2102"}}, "geometry": {"type": "Point", "coordinates": [-11.751826743410366, 26.015436204323134]}}, {"type": "Feature", "properties": {"norad_id": 66516, "name": "STARLINK-35924", "group": "last-30-days", "lat": 22.004180231535013, "lon": 131.83079080531604, "alt_km": 341.6268508976673, "timestamp": "2025-12-03T22:42:31.476109+00:00", "meta": {"OBJECT_NAME": "STARLINK-35924", "OBJECT_ID": "2025-265A", "EPOCH": "2025-12-03T12:00:02.998944", "MEAN_MOTION": 15.75039828, "ECCENTRICITY": 0.0001554, "INCLINATION": 42.9996, "RA_OF_ASC_NODE": 108.837, "ARG_OF_PERICENTER": 269.1033, "MEAN_ANOMALY": 111.4024, "EPHEMERIS_TYPE": 0, "CLASSIFICATION_TYPE": "U", "NORAD_CAT_ID": 66516, "ELEMENT_SET_NO": 999, "REV_AT_EPOCH": 349, "BSTAR": -0.00014406, "MEAN_MOTION_DOT": -0.00022547, "MEAN_MOTION_DDOT": 0}, "tle": {"line1": "1 66516U 25265A   25337.50003471 -.00022547  00000+0 -14406-3 0  9993", "line2": "2 66516  42.9996 108.8370 0001554 269.1033 111.4024 15.75039828  3498"}}, "geometry": {"type": "Point", "coordinates": [131.83079080531604, 22.004180231535013]}}, {"type": "Feature", "properties": {"norad_id": 66517, "name": "STARLINK-35937", "group": "last-30-days", "lat": 23.168104435949715, "lon": 133.46428514031837, "alt_km": 341.57802657706725, "timestamp": "2025-12-03T22:42:31.476120+00:00", "meta": {"OBJECT_NAME": "STARLINK-35937", "OBJECT_ID": "2025-265B", "EPOCH": "2025-12-03T12:00:02.998944", "MEAN_MOTION": 15.75038254, "ECCENTRICITY": 0.0001391, "INCLINATION": 42.9997, "RA_OF_ASC_NODE": 108.8329, "ARG_OF_PERICENTER": 258.5966, "MEAN_ANOMALY": 123.8297, "EPHEMERIS_TYPE": 0, "CLASSIFICATION_TYPE": "U", "NORAD_CAT_ID": 66517, "ELEMENT_SET_NO": 999, "REV_AT_EPOCH": 351, "BSTAR": -0.0002169, "MEAN_MOTION_DOT": -0.00033661, "MEAN_MOTION_DDOT": 0}, "tle": {"line1": "1 66517U 25265B   25337.50003471 -.00033661  00000+0 -21690-3 0  9996", "line2": "2 66517  42.9997 108.8329 0001391 258.5966 123.8297 15.75038254  3514"}}, "geometry": {"type": "Point", "coordinates": [133.46428514031837, 23.168104435949715]}}, {"type": "Feature", "properties": {"norad_id": 66518, "name": "STARLINK-35962", "group": "last-30-days", "lat": 24.326662871723247, "lon": 135.14284485733387, "alt_km": 341.56567179885315, "timestamp": "2025-12-03T22:42:31.476129+00:00", "meta": {"OBJECT_NAME": "STARLINK-35962", "OBJECT_ID": "2025-265C", "EPOCH": "2025-12-03T12:00:02.998944", "MEAN_MOTION": 15.75077168, "ECCENTRICITY": 0.0001681, "INCLINATION": 42.9995, "RA_OF_ASC_NODE": 108.8276, "ARG_OF_PERICENTER": 260.9706, "MEAN_ANOMALY": 123.3597, "EPHEMERIS_TYPE": 0, "CLASSIFICATION_TYPE": "U", "NORAD_CAT_ID": 66518, "ELEMENT_SET_NO": 999, "REV_AT_EPOCH": 351, "BSTAR": -0.00060566, "MEAN_MOTION_DOT": -0.00092654, "MEAN_MOTION_DDOT": 0}, "tle": {"line1": "1 66518U 25265C   25337.50003471 -.00092654  00000+0 -60566-3 0  9999", "line2": "2 66518  42.9995 108.8276 0001681 260.9706 123.3597 15.75077168  3510"}}, "geometry": {"type": "Point", "coordinates": [135.14284485733387, 24.326662871723247]}}]}